{"type": "FeatureCollection", "features": [ {"type": "Feature", "properties": {"norad_id": 66534, "name": "STARLINK-35976", "group": "last-30-days", "lat": 28.265676678587184, "lon": -143.56004648284437, "alt_km": 408.71898086640704, "timestamp": "2025-12-09T16:56:35.358985+00:00", "meta": {"OBJECT_NAME": "STARLINK-35976", "OBJECT_ID": "2025-265U", "EPOCH": "2025-12-09T12:00:02.000160", "MEAN_MOTION": 15.5240786, "ECCENTRICITY": 0.0001512, "INCLINATION": 42.9998, "RA_OF_ASC_NODE": 72.8871, "ARG_OF_PERICENTER": 278.1905, "MEAN_ANOMALY": 145.7878, "EPHEMERIS_TYPE": 0, "CLASSIFICATION_TYPE": "U", "NORAD_CAT_ID": 66534, "ELEMENT_SET_NO": 999, "REV_AT_EPOCH": 447, "BSTAR": -0.036605, "MEAN_MOTION_DOT": -0.02044318, "MEAN_MOTION_DDOT": 0}, "tle": {"line1": "1 66534U 25265U   25343.50002315 -.02044318  00000+0 -36605-1 0  9991", "line2": "2 66534  42.9998  72.8871 0001512 278.1905 145.7878 15.52407860  4474"}}, "geometry": {"type": "Point", "coordinates": [-143.56004648284437, 28.265676678587184]}}, {"type": "Feature", "properties": {"norad_id": 66535, "name": "STARLINK-35514", "group": "last-30-days", "lat": 27.18855645306334, "lon": -141.7776387517764, "alt_km": 408.74885215035374, "timestamp": "2025-12-09T16:56:35.358997+00:00", "meta": {"OBJECT_NAME": "STARLINK-35514", "OBJECT_ID": "2025-265V", "EPOCH": "2025-12-09T12:00:02.000160", "MEAN_MOTION": 15.52391855, "ECCENTRICITY": 0.0001297, "INCLINATION": 42.9999, "RA_OF_ASC_NODE": 72.8824, "ARG_OF_PERICENTER": 277.2917, "MEAN_ANOMALY": 148.604, "EPHEMERIS_TYPE": 0, "CLASSIFICATION_TYPE": "U", "NORAD_CAT_ID": 66535, "ELEMENT_SET_NO": 999, "REV_AT_EPOCH": 447, "BSTAR": -0.036047, "MEAN_MOTION_DOT": -0.02015275, "MEAN_MOTION_DDOT": 0}, "tle": {"line1": "1 66535U 25265V   25343.50002315 -.02015275  00000+0 -36047-1 0  9992", "line2": "2 66535  42.9999  72.8824 0001297 277.2917 148.6040 15.52391855  4476"}}, "geometry": {"type": "Point", "coordinates": [-141.7776387517764, 27.18855645306334]}}, {"type": "Feature", "properties": {"norad_id": 66536, "name": "STARLINK-35640", "group": "last-30-days", "lat": 26.08503672579863, "lon": -140.0233061750628, "alt_km": 409.0382032046173, "timestamp": "2025-12-09T16:56:35.359007+00:00", "meta": {"OBJECT_NAME": "STARLINK-35640", "OBJECT_ID": "2025-265W", "EPOCH": "2025-12-09T12:00:02.000160", "MEAN_MOTION": 15.52397775, "ECCENTRICITY": 0.0001476, "INCLINATION": 42.9998, "RA_OF_ASC_NODE": 72.8779, "ARG_OF_PERICENTER": 280.1755, "MEAN_ANOMALY": 147.638, "EPHEMERIS_TYPE": 0, "CLASSIFICATION_TYPE": "U", "NORAD_CAT_ID": 66536, "ELEMENT_SET_NO": 999, "REV_AT_EPOCH": 445, "BSTAR": -0.03629, "MEAN_MOTION_DOT": -0.0202795, "MEAN_MOTION_DDOT": 0}, "tle": {"line1": "1 66536U 25265W   25343.50002315 -.02027950  00000+0 -36290-1 0  9996", "line2": "2 66536  42.9998  72.8779 0001476 280.1755 147.6380 15.52397775  4458"}}, "geometry": {"type": "Point", "coordinates": [-140.0233061750628, 26.08503672579863]}}, {"type": "Feature", "properties": {"norad_id": 66537, "name": "STARLINK-35582", "group": "last-30-days", "lat": 24.962939034177758, "lon": -138.30590720813268, "alt_km": 409.0743360957249, "timestamp": "2025-12-09T16:56:35.359017+00:00", "meta": {"OBJECT_NAME": "STARLINK-35582", "OBJECT_ID": "2025-265X", "EPOCH": "2025-12-09T12:00:02.000160", "MEAN_MOTION": 15.52398989, "ECCENTRICITY": 0.0001348, "INCLINATION": 43, "RA_OF_ASC_NODE": 72.8728, "ARG_OF_PERICENTER": 276.4488, "MEAN_ANOMALY": 153.2789, "EPHEMERIS_TYPE": 0, "CLASSIFICATION_TYPE": "U", "NORAD_CAT_ID": 66537, "ELEMENT_SET_NO": 999, "REV_AT_EPOCH": 447, "BSTAR": -0.036237, "MEAN_MOTION_DOT": -0.02025301, "MEAN_MOTION_DDOT": 0}, "tle": {"line1": "1 66537U 25265X   25343.50002315 -.02025301  00000+0 -36237-1 0  9996", "line2": "2 66537  43.0000  72.8728 0001348 276.4488 153.2789 15.52398989  4474"}}, "geometry": {"type": "Point", "coordinates": [-138.30590720813268, 24.962939034177758]}}, {"type": "Feature", "properties": {"norad_id": 66538, "name": "STARLINK-35577", "group": "last-30-days", "lat": 23.81876568608699, "lon": -136.61623030603087, "alt_km": 409.32564079805525, "timestamp": "2025-12-09T16:56:35.359027+00:00", "meta": {"OBJECT_NAME": "STARLINK-35577", "OBJECT_ID": "2025-265Y", "EPOCH": "2025-12-09T12:00:02.000160", "MEAN_MOTION": 15.52405906, "ECCENTRICITY": 0.0001473, "INCLINATION": 42.9999, "RA_OF_ASC_NODE": 72.8679, "ARG_OF_PERICENTER": 278.6865, "MEAN_ANOMALY": 152.9587, "EPHEMERIS_TYPE": 0, "CLASSIFICATION_TYPE": "U", "NORAD_CAT_ID": 66538, "ELEMENT_SET_NO": 999, "REV_AT_EPOCH": 447, "BSTAR": -0.036482, "MEAN_MOTION_DOT": -0.02038016, "MEAN_MOTION_DDOT": 0}, "tle": {"line1": "1 66538U 25265Y   25343.50002315 -.02038016  00000+0 -36482-1 0  9996", "line2": "2 66538  42.9999  72.8679 0001473 278.6865 152.9587 15.52405906  4477"}}, "geometry": {"type": "Point", "coordinates": [-136.61623030603087, 23.81876568608699]}}, {"type": "Feature", "properties": {"norad_id": 66539, "name": "STARLINK-35697", "group": "last-30-days", "lat": 22.660196979183713, "lon": -134.96192979118155, "alt_km": 409.45217157445404, "timestamp": "2025-12-09T16:56:35.359039+00:00", "meta": {"OBJECT_NAME": "STARLINK-35697", "OBJECT_ID": "2025-265Z", "EPOCH": "2025-12-09T12:00:02.000160", "MEAN_MOTION": 15.52399803, "ECCENTRICITY": 0.000143, "INCLINATION": 42.9998, "RA_OF_ASC_NODE": 72.8628, "ARG_OF_PERICENTER": 277.7109, "MEAN_ANOMALY": 155.8501, "EPHEMERIS_TYPE": 0, "CLASSIFICATION_TYPE": "U", "NORAD_CAT_ID": 66539, "ELEMENT_SET_NO": 999, "REV_AT_EPOCH": 447, "BSTAR": -0.03625, "MEAN_MOTION_DOT": -0.02026028, "MEAN_MOTION_DDOT": 0}, "tle": {"line1": "1 66539U 25265Z   25343.50002315 -.02026028  00000+0 -36250-1 0  9990", "line2": "2 66539  42.9998  72.8628 0001430 277.7109 155.8501 15.52399803  4471"}}, "geometry": {"type": "Point", "coordinates": [-134.96192979118155, 22.660196979183713]}}, {"type": "Feature", "properties": {"norad_id": 66540, "name": "STARLINK-35818", "group": "last-30-days", "lat": 21.482878242134724, "lon": -133.3325423167765, "alt_km": 409.6278578217907, "timestamp": "2025-12-09T16:56:35.359053+00:00", "meta": {"OBJECT_NAME": "STARLINK-35818", "OBJECT_ID": "2025-265AA", "EPOCH": "2025-12-09T12:00:02.000160", "MEAN_MOTION": 15.52399038, "ECCENTRICITY": 0.0001433, "INCLINATION": 42.9998, "RA_OF_ASC_NODE": 72.858, "ARG_OF_PERICENTER": 278.4314, "MEAN_ANOMALY": 157.0468, "EPHEMERIS_TYPE": 0, "CLASSIFICATION_TYPE": "U", "NORAD_CAT_ID": 66540, "ELEMENT_SET_NO": 999, "REV_AT_EPOCH": 447, "BSTAR": -0.036235, "MEAN_MOTION_DOT": -0.02025243, "MEAN_MOTION_DDOT": 0}, "tle": {"line1": "1 66540U 25265AA  25343.50002315 -.02025243  00000+0 -36235-1 0  9993", "line2": "2 66540  42.9998  72.8580 0001433 278.4314 157.0468 15.52399038  4475"}}, "geometry": {"type": "Point", "coordinates": [-133.3325423167765, 21.482878242134724]}}, {"type": "Feature", "properties": {"norad_id": 66541, "name": "STARLINK-35796", "group": "last-30-days", "lat": 20.2901131711032, "lon": -131.72959968259, "alt_km": 409.7813050309187, "timestamp": "2025-12-09T16:56:35.359063+00:00", "meta": {"OBJECT_NAME": "STARLINK-35796", "OBJECT_ID": "2025-265AB", "EPOCH": "2025-12-09T12:00:02.000160", "MEAN_MOTION": 15.52399025, "ECCENTRICITY": 0.0001435, "INCLINATION": 42.9999, "RA_OF_ASC_NODE": 72.8533, "ARG_OF_PERICENTER": 277.7198, "MEAN_ANOMALY": 159.6753, "EPHEMERIS_TYPE": 0, "CLASSIFICATION_TYPE": "U", "NORAD_CAT_ID": 66541, "ELEMENT_SET_NO": 999, "REV_AT_EPOCH": 447, "BSTAR": -0.036231, "MEAN_MOTION_DOT": -0.02025061, "MEAN_MOTION_DDOT": 0}, "tle": {"line1": "1 66541U 25265AB  25343.50002315 -.02025061  00000+0 -36231-1 0  9998", "line2": "2 66541  42.9999  72.8533 0001435 277.7198 159.6753 15.52399025  4470"}}, "geometry": {"type": "Point", "coordinates": [-131.72959968259, 20.2901131711032]}}, {"type": "Feature", "properties": {"norad_id": 66542, "name": "STARLINK-35833", "group": "last-30-days", "lat": 19.081734776291704, "lon": -130.14973792550256, "alt_km": 410.01637386468065, "timestamp": "2025-12-09T16:56:35.359073+00:00", "meta": {"OBJECT_NAME": "STARLINK-35833", "OBJECT_ID": "2025-265AC", "EPOCH": "2025-12-09T12:00:02.000160", "MEAN_MOTION": 15.5239536, "ECCENTRICITY": 0.0001466, "INCLINATION": 42.9999, "RA_OF_ASC_NODE": 72.8488, "ARG_OF_PERICENTER": 280.8841, "MEAN_ANOMALY": 158.4316, "EPHEMERIS_TYPE": 0, "CLASSIFICATION_TYPE": "U", "NORAD_CAT_ID": 66542, "ELEMENT_SET_NO": 999, "REV_AT_EPOCH": 447, "BSTAR": -0.036203, "MEAN_MOTION_DOT": -0.02023429, "MEAN_MOTION_DDOT": 0}, "tle": {"line1": "1 66542U 25265AC  25343.50002315 -.02023429  00000+0 -36203-1 0  9994", "line2": "2 66542  42.9999  72.8488 0001466 280.8841 158.4316 15.52395360  4474"}}, "geometry": {"type": "Point", "coordinates": [-130.14973792550256, 19.081734776291704]}}, {"type": "Feature", "properties": {"norad_id": 66543, "name": "STARLINK-35315", "group": "last-30-days", "lat": 17.859669534278506, "lon": -128.59332743390814, "alt_km": 410.13620185444233, "timestamp": "2025-12-09T16:56:35.359106+00:00", "meta": {"OBJECT_NAME": "STARLINK-35315", "OBJECT_ID": "2025-265AD", "EPOCH": "2025-12-09T12:00:02.000160", "MEAN_MOTION": 15.52403792, "ECCENTRICITY": 0.0001463, "INCLINATION": 42.9999, "RA_OF_ASC_NODE": 72.8435, "ARG_OF_PERICENTER": 278.4894, "MEAN_ANOMALY": 162.7422, "EPHEMERIS_TYPE": 0, "CLASSIFICATION_TYPE": "U", "NORAD_CAT_ID": 66543, "ELEMENT_SET_NO": 999, "REV_AT_EPOCH": 436, "BSTAR": -0.036457, "MEAN_MOTION_DOT": -0.0203666, "MEAN_MOTION_DDOT": 0}, "tle": {"line1": "1 66543U 25265AD  25343.50002315 -.02036660  00000+0 -36457-1 0  9997", "line2": "2 66543  42.9999  72.8435 0001463 278.4894 162.7422 15.52403792  4368"}}, "geometry": {"type": "Point", "coordinates": [-128.59332743390814, 17.859669534278506]}}]}